[Satellite]
VERSION=1.1
NAME=XINGYUN-2 02
NICKNAME=XINGYUN-2 02
TLE1=1 45603U 20028B   20158.24669192  .00000854  00000-0  71988-4 0  9999
TLE2=2 45603  97.5569 188.6684 0011302 169.7703 259.5332 15.00674001  3772
STATUS=0
